BUFENG 1A               
1 44310U 19032A   26068.91906837  .00016103  00000+0  62414-3 0  9992
2 44310  44.9758 238.6688 0005472  55.4463 304.6935 15.26012088372013
STARLINK-31860          
1 59670U 24084S   26068.29977680  .00000063  00000+0  11822-4 0  9991
2 59670  43.0038  40.5216 0001168 233.4402 126.6342 15.27576635104331
